start=new Date('2023-01-18T00:00:00.000Z').valueOf();
sats=[{"ARG_OF_PERICENTER":"59.5044","NORAD_CAT_ID":"45387","OBJECT_ID":"2020-019AD","RCS_SIZE":"LARGE","MEAN_MOTION_DDOT":"0.0000000000000","ELEMENT_SET_NO":"999","OBJECT_NAME":"STARLINK-1274","ECCENTRICITY":"0.00011750","SITE":"AFETR","MEAN_MOTION_DOT":"-0.00019755","PERIOD":"95.595","REF_FRAME":"TEME","TLE_LINE1":"1 45387U 20019AD  23017.95765111 -.00019755  00000-0 -13129-2 0  9994","BSTAR":"-0.00131290000000","REV_AT_EPOCH":"15714","MEAN_ANOMALY":"300.6061","GP_ID":"223357520","TLE_LINE2":"2 45387  53.0532 254.5005 0001175  59.5044 300.6061 15.06347534157141","RA_OF_ASC_NODE":"254.5005","APOAPSIS":"548.188","CENTER_NAME":"EARTH","SEMIMAJOR_AXIS":"6925.509","TIME_SYSTEM":"UTC","COUNTRY_CODE":"US","INCLINATION":"53.0532","MEAN_ELEMENT_THEORY":"SGP4","EPHEMERIS_TYPE":"0","EPOCH":"2023-01-17T22:59:01.055904","FILE":"3753232","DECAY_DATE":null,"OBJECT_TYPE":"PAYLOAD","PERIAPSIS":"546.561","CLASSIFICATION_TYPE":"U","LAUNCH_DATE":"2020-03-18","MEAN_MOTION":"15.06347534"},{"NORAD_CAT_ID":"45388","ARG_OF_PERICENTER":"112.5136","OBJECT_NAME":"STARLINK-1280","ELEMENT_SET_NO":"999","MEAN_MOTION_DDOT":"0.0000000000000","OBJECT_ID":"2020-019AE","RCS_SIZE":"LARGE","PERIOD":"95.592","MEAN_MOTION_DOT":"0.00009736","ECCENTRICITY":"0.00014810","SITE":"AFETR","TLE_LINE1":"1 45388U 20019AE  23017.99266467  .00009736  00000-0  67170-3 0  9991","BSTAR":"0.00067170000000","REV_AT_EPOCH":"15689","REF_FRAME":"TEME","COUNTRY_CODE":"US","SEMIMAJOR_AXIS":"6925.362","APOAPSIS":"548.253","CENTER_NAME":"EARTH","TIME_SYSTEM":"UTC","TLE_LINE2":"2 45388  53.0520 274.3460 0001481 112.5136 247.6010 15.06395468156890","GP_ID":"223357537","RA_OF_ASC_NODE":"274.3460","MEAN_ANOMALY":"247.6010","EPHEMERIS_TYPE":"0","INCLINATION":"53.0520","MEAN_ELEMENT_THEORY":"SGP4","MEAN_MOTION":"15.06395468","LAUNCH_DATE":"2020-03-18","OBJECT_TYPE":"PAYLOAD","CLASSIFICATION_TYPE":"U","PERIAPSIS":"546.202","DECAY_DATE":null,"FILE":"3753241","EPOCH":"2023-01-17T23:49:26.227488"},{"OBJECT_NAME":"STARLINK-1283","ELEMENT_SET_NO":"999","MEAN_MOTION_DDOT":"0.0000000000000","OBJECT_ID":"2020-019AF","RCS_SIZE":"LARGE","NORAD_CAT_ID":"45389","ARG_OF_PERICENTER":"80.5001","BSTAR":"0.00090361000000","TLE_LINE1":"1 45389U 20019AF  23017.97239061  .00013204  00000-0  90361-3 0  9993","REV_AT_EPOCH":"15717","REF_FRAME":"TEME","PERIOD":"95.592","MEAN_MOTION_DOT":"0.00013204","SITE":"AFETR","ECCENTRICITY":"0.00014420","EPHEMERIS_TYPE":"0","INCLINATION":"53.0524","MEAN_ELEMENT_THEORY":"SGP4","COUNTRY_CODE":"US","SEMIMAJOR_AXIS":"6925.342","APOAPSIS":"548.205","CENTER_NAME":"EARTH","TIME_SYSTEM":"UTC","GP_ID":"223357532","TLE_LINE2":"2 45389  53.0524 254.4322 0001442  80.5001 279.6151 15.06402291157179","RA_OF_ASC_NODE":"254.4322","MEAN_ANOMALY":"279.6151","MEAN_MOTION":"15.06402291","LAUNCH_DATE":"2020-03-18","OBJECT_TYPE":"PAYLOAD","CLASSIFICATION_TYPE":"U","PERIAPSIS":"546.208","DECAY_DATE":null,"FILE":"3753241","EPOCH":"2023-01-17T23:20:14.548704"},{"REF_FRAME":"TEME","BSTAR":"0.00011671000000","TLE_LINE1":"1 45390U 20019AG  23017.68120004  .00001457  00000-0  11671-3 0  9993","REV_AT_EPOCH":"15712","ECCENTRICITY":"0.00013890","SITE":"AFETR","MEAN_MOTION_DOT":"0.00001457","PERIOD":"95.593","RCS_SIZE":"LARGE","OBJECT_ID":"2020-019AG","MEAN_MOTION_DDOT":"0.0000000000000","ELEMENT_SET_NO":"999","OBJECT_NAME":"STARLINK-1284","ARG_OF_PERICENTER":"105.1059","NORAD_CAT_ID":"45390","FILE":"3753286","DECAY_DATE":null,"EPOCH":"2023-01-17T16:20:55.683456","OBJECT_TYPE":"PAYLOAD","PERIAPSIS":"546.285","CLASSIFICATION_TYPE":"U","LAUNCH_DATE":"2020-03-18","MEAN_MOTION":"15.06389008","INCLINATION":"53.0533","MEAN_ELEMENT_THEORY":"SGP4","EPHEMERIS_TYPE":"0","MEAN_ANOMALY":"255.0084","TLE_LINE2":"2 45390  53.0533 255.7439 0001389 105.1059 255.0084 15.06389008157129","GP_ID":"223378258","RA_OF_ASC_NODE":"255.7439","CENTER_NAME":"EARTH","APOAPSIS":"548.209","SEMIMAJOR_AXIS":"6925.382","TIME_SYSTEM":"UTC","COUNTRY_CODE":"US"},{"COUNTRY_CODE":"US","TIME_SYSTEM":"UTC","SEMIMAJOR_AXIS":"6925.358","APOAPSIS":"548.106","CENTER_NAME":"EARTH","RA_OF_ASC_NODE":"254.7864","GP_ID":"223379009","TLE_LINE2":"2 45391  53.0515 254.7864 0001275  86.3913 273.7222 15.06397005156883","MEAN_ANOMALY":"273.7222","EPHEMERIS_TYPE":"0","MEAN_ELEMENT_THEORY":"SGP4","INCLINATION":"53.0515","MEAN_MOTION":"15.06397005","LAUNCH_DATE":"2020-03-18","PERIAPSIS":"546.340","CLASSIFICATION_TYPE":"U","OBJECT_TYPE":"PAYLOAD","FILE":"3753286","DECAY_DATE":null,"EPOCH":"2023-01-17T21:27:24.759648","NORAD_CAT_ID":"45391","ARG_OF_PERICENTER":"86.3913","OBJECT_NAME":"STARLINK-1289","ELEMENT_SET_NO":"999","MEAN_MOTION_DDOT":"0.0000000000000","OBJECT_ID":"2020-019AH","RCS_SIZE":"LARGE","PERIOD":"95.592","MEAN_MOTION_DOT":"0.00001850","SITE":"AFETR","ECCENTRICITY":"0.00012750","REV_AT_EPOCH":"15688","BSTAR":"0.00014307000000","TLE_LINE1":"1 45391U 20019AH  23017.89403657  .00001850  00000-0  14307-3 0  9991","REF_FRAME":"TEME"},{"MEAN_MOTION":"15.23946343","LAUNCH_DATE":"2020-03-18","CLASSIFICATION_TYPE":"U","PERIAPSIS":"492.507","OBJECT_TYPE":"PAYLOAD","FILE":"3753286","EPOCH":"2023-01-17T21:09:25.986528","DECAY_DATE":null,"EPHEMERIS_TYPE":"0","MEAN_ELEMENT_THEORY":"SGP4","INCLINATION":"52.9803","COUNTRY_CODE":"US","TIME_SYSTEM":"UTC","APOAPSIS":"495.399","CENTER_NAME":"EARTH","SEMIMAJOR_AXIS":"6872.088","RA_OF_ASC_NODE":"225.2954","GP_ID":"223378754","TLE_LINE2":"2 45392  52.9803 225.2954 0002104  88.1066 272.0170 15.23946343157234","MEAN_ANOMALY":"272.0170","REV_AT_EPOCH":"15723","BSTAR":"0.00084307000000","TLE_LINE1":"1 45392U 20019AJ  23017.88155077  .00020375  00000-0  84307-3 0  9991","REF_FRAME":"TEME","PERIOD":"94.492","MEAN_MOTION_DOT":"0.00020375","ECCENTRICITY":"0.00021040","SITE":"AFETR","OBJECT_NAME":"STARLINK-1290","ELEMENT_SET_NO":"999","MEAN_MOTION_DDOT":"0.0000000000000","OBJECT_ID":"2020-019AJ","RCS_SIZE":"LARGE","NORAD_CAT_ID":"45392","ARG_OF_PERICENTER":"88.1066"},{"CLASSIFICATION_TYPE":"U","PERIAPSIS":"546.657","OBJECT_TYPE":"PAYLOAD","DECAY_DATE":null,"FILE":"3753233","EPOCH":"2023-01-17T22:11:14.665056","MEAN_MOTION":"15.06395942","LAUNCH_DATE":"2020-03-18","MEAN_ELEMENT_THEORY":"SGP4","INCLINATION":"53.0527","EPHEMERIS_TYPE":"0","RA_OF_ASC_NODE":"254.6543","TLE_LINE2":"2 45393  53.0527 254.6543 0000822 118.1436 241.9636 15.06395942156921","GP_ID":"223357540","MEAN_ANOMALY":"241.9636","COUNTRY_CODE":"US","TIME_SYSTEM":"UTC","APOAPSIS":"547.795","CENTER_NAME":"EARTH","SEMIMAJOR_AXIS":"6925.361","REF_FRAME":"TEME","REV_AT_EPOCH":"15692","BSTAR":"0.00059212000000","TLE_LINE1":"1 45393U 20019AK  23017.92447529  .00008548  00000-0  59212-3 0  9998","MEAN_MOTION_DOT":"0.00008548","SITE":"AFETR","ECCENTRICITY":"0.00008220","PERIOD":"95.592","MEAN_MOTION_DDOT":"0.0000000000000","OBJECT_ID":"2020-019AK","RCS_SIZE":"LARGE","OBJECT_NAME":"STARLINK-1291","ELEMENT_SET_NO":"999","ARG_OF_PERICENTER":"118.1436","NORAD_CAT_ID":"45393"},{"DECAY_DATE":null,"FILE":"3753233","EPOCH":"2023-01-18T00:29:14.408160","CLASSIFICATION_TYPE":"U","PERIAPSIS":"546.301","OBJECT_TYPE":"PAYLOAD","LAUNCH_DATE":"2020-03-18","MEAN_MOTION":"15.06393991","MEAN_ELEMENT_THEORY":"SGP4","INCLINATION":"53.0521","EPHEMERIS_TYPE":"0","MEAN_ANOMALY":"249.6444","RA_OF_ASC_NODE":"254.2225","TLE_LINE2":"2 45394  53.0521 254.2225 0001345 110.4689 249.6444 15.06393991156918","GP_ID":"223357547","TIME_SYSTEM":"UTC","APOAPSIS":"548.163","CENTER_NAME":"EARTH","SEMIMAJOR_AXIS":"6925.367","COUNTRY_CODE":"US","REF_FRAME":"TEME","REV_AT_EPOCH":"15691","TLE_LINE1":"1 45394U 20019AL  23018.02030565  .00000120  00000-0  26938-4 0  9997","BSTAR":"0.00002693800000","ECCENTRICITY":"0.00013450","SITE":"AFETR","MEAN_MOTION_DOT":"0.00000120","PERIOD":"95.593","RCS_SIZE":"LARGE","OBJECT_ID":"2020-019AL","MEAN_MOTION_DDOT":"0.0000000000000","ELEMENT_SET_NO":"999","OBJECT_NAME":"STARLINK-1292","ARG_OF_PERICENTER":"110.4689","NORAD_CAT_ID":"45394"},{"MEAN_MOTION":"15.06385852","LAUNCH_DATE":"2020-03-18","PERIAPSIS":"546.162","CLASSIFICATION_TYPE":"U","OBJECT_TYPE":"PAYLOAD","EPOCH":"2023-01-17T18:49:33.036096","FILE":"3753286","DECAY_DATE":null,"COUNTRY_CODE":"US","TIME_SYSTEM":"UTC","SEMIMAJOR_AXIS":"6925.392","APOAPSIS":"548.352","CENTER_NAME":"EARTH","RA_OF_ASC_NODE":"255.2787","GP_ID":"223378509","TLE_LINE2":"2 45395  53.0541 255.2787 0001581 103.0818 257.0348 15.06385852156327","MEAN_ANOMALY":"257.0348","EPHEMERIS_TYPE":"0","MEAN_ELEMENT_THEORY":"SGP4","INCLINATION":"53.0541","PERIOD":"95.593","MEAN_MOTION_DOT":"0.00003809","ECCENTRICITY":"0.00015810","SITE":"AFETR","REV_AT_EPOCH":"15632","TLE_LINE1":"1 45395U 20019AM  23017.78441014  .00003809  00000-0  27454-3 0  9995","BSTAR":"0.00027454000000","REF_FRAME":"TEME","NORAD_CAT_ID":"45395","ARG_OF_PERICENTER":"103.0818","OBJECT_NAME":"STARLINK-1297","ELEMENT_SET_NO":"999","MEAN_MOTION_DDOT":"0.0000000000000","OBJECT_ID":"2020-019AM","RCS_SIZE":"LARGE"},{"NORAD_CAT_ID":"45396","ARG_OF_PERICENTER":"81.5537","ELEMENT_SET_NO":"999","OBJECT_NAME":"STARLINK-1303","OBJECT_ID":"2020-019AN","RCS_SIZE":"LARGE","MEAN_MOTION_DDOT":"0.0000000000000","PERIOD":"95.592","ECCENTRICITY":"0.00010010","SITE":"AFETR","MEAN_MOTION_DOT":"0.00003883","BSTAR":"0.00027941000000","TLE_LINE1":"1 45396U 20019AN  23017.96501430  .00003883  00000-0  27941-3 0  9998","REV_AT_EPOCH":"15688","REF_FRAME":"TEME","APOAPSIS":"547.903","CENTER_NAME":"EARTH","SEMIMAJOR_AXIS":"6925.345","TIME_SYSTEM":"UTC","COUNTRY_CODE":"US","MEAN_ANOMALY":"278.5566","GP_ID":"223357583","TLE_LINE2":"2 45396  53.0538 254.4667 0001001  81.5537 278.5566 15.06401183156884","RA_OF_ASC_NODE":"254.4667","EPHEMERIS_TYPE":"0","INCLINATION":"53.0538","MEAN_ELEMENT_THEORY":"SGP4","LAUNCH_DATE":"2020-03-18","MEAN_MOTION":"15.06401183","DECAY_DATE":null,"FILE":"3753242","EPOCH":"2023-01-17T23:09:37.235520","OBJECT_TYPE":"PAYLOAD","PERIAPSIS":"546.517","CLASSIFICATION_TYPE":"U"}];
